[{"OBJECT_NAME":"QIANFAN-34","OBJECT_ID":"2024-185R","EPOCH":"2026-03-09T23:48:13.151232","MEAN_MOTION":14.02387814,"ECCENTRICITY":0.00081871,"INCLINATION":88.9718,"RA_OF_ASC_NODE":68.5076,"ARG_OF_PERICENTER":66.0949,"MEAN_ANOMALY":294.1088,"EPHEMERIS_TYPE":0,"CLASSIFICATION_TYPE":"U","NORAD_CAT_ID":61567,"ELEMENT_SET_NO":999,"REV_AT_EPOCH":8158,"BSTAR":0.00037025397,"MEAN_MOTION_DOT":5.82e-6,"MEAN_MOTION_DDOT":0},{"OBJECT_NAME":"THORAD AGENA D DEB","OBJECT_ID":"1970-025HS","EPOCH":"2026-03-09T21:08:11.123520","MEAN_MOTION":14.10902248,"ECCENTRICITY":0.00677547,"INCLINATION":100.3343,"RA_OF_ASC_NODE":174.3868,"ARG_OF_PERICENTER":345.8565,"MEAN_ANOMALY":14.0703,"EPHEMERIS_TYPE":0,"CLASSIFICATION_TYPE":"U","NORAD_CAT_ID":4996,"ELEMENT_SET_NO":999,"REV_AT_EPOCH":80422,"BSTAR":0.001721329,"MEAN_MOTION_DOT":3.099e-5,"MEAN_MOTION_DDOT":0}]
